ADRAS-J                 
1 58992U 24034A   24246.71051681  .00007334  00000+0  66288-3 0  9992
2 58992  98.2197 223.3304 0044204 151.3378 209.0285 14.95029129 29447
